CCSDS_OMM_VERS = 2.0
CREATION_DATE  = 
ORIGINATOR     = 

OBJECT_NAME    = CZ-2C R/B
OBJECT_ID      = 2022-058K
CENTER_NAME    = EARTH
REF_FRAME      = TEME
TIME_SYSTEM    = UTC
MEAN_ELEMENT_THEORY = SGP/SGP4

EPOCH          = 2025-11-26T11:23:53.196864
MEAN_MOTION    = 15.47343705
ECCENTRICITY   = .0047322
INCLINATION    = 50.1892
RA_OF_ASC_NODE = 126.4236
ARG_OF_PERICENTER = 131.2741
MEAN_ANOMALY   = 229.2317

EPHEMERIS_TYPE = 0
CLASSIFICATION_TYPE = U
NORAD_CAT_ID   = 52794
ELEMENT_SET_NO = 999
REV_AT_EPOCH   = 19411
BSTAR          = .49202E-3
MEAN_MOTION_DOT = .26386E-3
MEAN_MOTION_DDOT = 0

CCSDS_OMM_VERS = 2.0
CREATION_DATE  = 
ORIGINATOR     = 

OBJECT_NAME    = CZ-2C R/B
OBJECT_ID      = 2022-132E
CENTER_NAME    = EARTH
REF_FRAME      = TEME
TIME_SYSTEM    = UTC
MEAN_ELEMENT_THEORY = SGP/SGP4

EPOCH          = 2025-11-26T12:13:05.837376
MEAN_MOTION    = 15.53438788
ECCENTRICITY   = .0023988
INCLINATION    = 97.2950
RA_OF_ASC_NODE = 326.4156
ARG_OF_PERICENTER = 110.0052
MEAN_ANOMALY   = 250.3788

EPHEMERIS_TYPE = 0
CLASSIFICATION_TYPE = U
NORAD_CAT_ID   = 54039
ELEMENT_SET_NO = 999
REV_AT_EPOCH   = 17431
BSTAR          = .41875E-3
MEAN_MOTION_DOT = .26805E-3
MEAN_MOTION_DDOT = 0

CCSDS_OMM_VERS = 2.0
CREATION_DATE  = 
ORIGINATOR     = 

OBJECT_NAME    = GSLV R/B
OBJECT_ID      = 2022-138AN
CENTER_NAME    = EARTH
REF_FRAME      = TEME
TIME_SYSTEM    = UTC
MEAN_ELEMENT_THEORY = SGP/SGP4

EPOCH          = 2025-11-26T16:03:27.459648
MEAN_MOTION    = 14.96009022
ECCENTRICITY   = .0022275
INCLINATION    = 87.3842
RA_OF_ASC_NODE = 200.8543
ARG_OF_PERICENTER = 159.4315
MEAN_ANOMALY   = 200.7818

EPHEMERIS_TYPE = 0
CLASSIFICATION_TYPE = U
NORAD_CAT_ID   = 54149
ELEMENT_SET_NO = 999
REV_AT_EPOCH   = 16852
BSTAR          = .31214E-3
MEAN_MOTION_DOT = .3545E-4
MEAN_MOTION_DDOT = 0

CCSDS_OMM_VERS = 2.0
CREATION_DATE  = 
ORIGINATOR     = 

OBJECT_NAME    = XRISM
OBJECT_ID      = 2023-137A
CENTER_NAME    = EARTH
REF_FRAME      = TEME
TIME_SYSTEM    = UTC
MEAN_ELEMENT_THEORY = SGP/SGP4

EPOCH          = 2025-11-26T20:09:16.458048
MEAN_MOTION    = 15.10126413
ECCENTRICITY   = .0007597
INCLINATION    = 31.0011
RA_OF_ASC_NODE = 228.1869
ARG_OF_PERICENTER = 83.7650
MEAN_ANOMALY   = 276.3853

EPHEMERIS_TYPE = 0
CLASSIFICATION_TYPE = U
NORAD_CAT_ID   = 57800
ELEMENT_SET_NO = 999
REV_AT_EPOCH   = 12222
BSTAR          = .40308E-3
MEAN_MOTION_DOT = .6834E-4
MEAN_MOTION_DDOT = 0

CCSDS_OMM_VERS = 2.0
CREATION_DATE  = 
ORIGINATOR     = 

OBJECT_NAME    = ACS3
OBJECT_ID      = 2024-077B
CENTER_NAME    = EARTH
REF_FRAME      = TEME
TIME_SYSTEM    = UTC
MEAN_ELEMENT_THEORY = SGP/SGP4

EPOCH          = 2025-11-26T18:53:35.191104
MEAN_MOTION    = 13.84342411
ECCENTRICITY   = .0073347
INCLINATION    = 97.2863
RA_OF_ASC_NODE = 289.9472
ARG_OF_PERICENTER = 9.2734
MEAN_ANOMALY   = 350.9762

EPHEMERIS_TYPE = 0
CLASSIFICATION_TYPE = U
NORAD_CAT_ID   = 59588
ELEMENT_SET_NO = 999
REV_AT_EPOCH   = 7993
BSTAR          = -.11247E-1
MEAN_MOTION_DOT = -.12845E-3
MEAN_MOTION_DDOT = 0

